CHUANGXIN 16A (CX-16A)  
1 53586U 22102A   26068.83297444  .00003128  00000+0  20134-3 0  9993
2 53586  28.9941 256.1289 0005063  43.7318 316.3682 15.05552649194538
STARLINK-34344          
1 64159U 25112P   26068.67997880  .00005830  00000+0  40782-3 0  9991
2 64159  97.6036 121.4644 0001439 102.9545 257.1842 15.05656993 43301
